[{"OBJECT_NAME":"QIANFAN-103","OBJECT_ID":"2025-233N","EPOCH":"2026-03-09T22:31:27.635520","MEAN_MOTION":13.51006413,"ECCENTRICITY":0.00019687,"INCLINATION":88.9944,"RA_OF_ASC_NODE":53.2219,"ARG_OF_PERICENTER":91.2832,"MEAN_ANOMALY":268.8545,"EPHEMERIS_TYPE":0,"CLASSIFICATION_TYPE":"U","NORAD_CAT_ID":66045,"ELEMENT_SET_NO":999,"REV_AT_EPOCH":1978,"BSTAR":6.7265672e-5,"MEAN_MOTION_DOT":5.5e-7,"MEAN_MOTION_DDOT":0},{"OBJECT_NAME":"FENGYUN 1C DEB","OBJECT_ID":"1999-025BCX","EPOCH":"2026-03-09T07:43:09.956928","MEAN_MOTION":13.83667721,"ECCENTRICITY":0.01810888,"INCLINATION":98.6163,"RA_OF_ASC_NODE":199.8752,"ARG_OF_PERICENTER":90.8426,"MEAN_ANOMALY":325.194,"EPHEMERIS_TYPE":0,"CLASSIFICATION_TYPE":"U","NORAD_CAT_ID":31005,"ELEMENT_SET_NO":999,"REV_AT_EPOCH":95478,"BSTAR":0.0016211116,"MEAN_MOTION_DOT":1.996e-5,"MEAN_MOTION_DDOT":0}]
